BEIDOU-2 IGSO-1 (C06)   
1 36828U 10036A   23330.33412837 -.00000035  00000+0  00000+0 0  9996
2 36828  54.2365 171.4145 0038077 190.8265 290.7602  1.00286376 48846
BEIDOU-2 G4 (C04)       
1 37210U 10057A   23330.84277547 -.00000104  00000+0  00000+0 0  9995
2 37210   1.3663  64.3135 0008183 179.8874 284.6846  1.00270512 47939
BEIDOU-2 IGSO-2 (C07)   
1 37256U 10068A   23331.16540196 -.00000225  00000+0  00000+0 0  9990
2 37256  49.2589 283.2909 0030132 213.6845  95.0188  1.00256481 47439
BEIDOU-2 IGSO-3 (C08)   
1 37384U 11013A   23331.17673991 -.00000210  00000+0  00000+0 0  9998
2 37384  61.0582  49.0817 0027525 181.8765   4.9322  1.00260266 46312
BEIDOU-2 IGSO-4 (C09)   
1 37763U 11038A   23330.54286802  .00000048  00000+0  00000+0 0  9995
2 37763  54.5093 173.9702 0112457 227.0468 312.7562  1.00257325 45282
BEIDOU-2 IGSO-5 (C10)   
1 37948U 11073A   23331.20563571 -.00000163  00000+0  00000+0 0  9993
2 37948  49.3845 282.9623 0093182 221.0967  88.3170  1.00253849 44049
BEIDOU-2 G5 (C05)       
1 38091U 12008A   23330.75111345  .00000064  00000+0  00000+0 0  9998
2 38091   1.9106  69.6863 0007999 196.6369 128.3486  1.00277142 43005
BEIDOU-2 M3 (C11)       
1 38250U 12018A   23330.96347785 -.00000091  00000+0  00000+0 0  9999
2 38250  56.4657 336.0978 0025477 261.8440  97.8867  1.86231169 78905
BEIDOU-2 M4 (C12)       
1 38251U 12018B   23330.35761133 -.00000089  00000+0  00000+0 0  9997
2 38251  56.3756 335.4047 0016403 264.2603  95.5736  1.86231892 78556
BEIDOU-2 M6 (C14)       
1 38775U 12050B   23328.99333394 -.00000021  00000+0  00000+0 0  9991
2 38775  55.7547  94.0314 0010692 334.7742  25.1389  1.86231007 75899
BEIDOU-2 G6 (C02)       
1 38953U 12059A   23330.89493959 -.00000166  00000+0  00000+0 0  9994
2 38953   2.0409  81.6494 0007744 287.5899 102.5050  1.00269589 40554
BEIDOU-3S IGSO-1S (C31) 
1 40549U 15019A   23330.30606010 -.00000186  00000+0  00000+0 0  9999
2 40549  50.9518 306.5939 0036754 196.0503 125.4808  1.00293710 31708
BEIDOU-3S M2S (C57)     
1 40748U 15037A   23330.55958131 -.00000091  00000+0  00000+0 0  9996
2 40748  55.6136 333.9458 0012930 255.1022 104.7722  1.86233126 56734
BEIDOU-3S M1S (C58)     
1 40749U 15037B   23328.68200133 -.00000080  00000+0  00000+0 0  9998
2 40749  55.6179 333.9961 0006249 304.5600  55.4059  1.86232834 56705
BEIDOU-3S IGSO-2S (C56) 
1 40938U 15053A   23331.16834407 -.00000161  00000+0  00000+0 0  9990
2 40938  50.6795 269.7728 0046669 193.6632 118.7146  1.00263650 29990
BEIDOU-2 IGSO-6 (C13)   
1 41434U 16021A   23331.16258251 -.00000187  00000+0  00000+0 0  9993
2 41434  58.8746  47.4124 0049589 221.9539 310.9068  1.00266243 28117
BEIDOU-2 G7 (C03)       
1 41586U 16037A   23330.90049675 -.00000345  00000+0  00000+0 0  9993
2 41586   1.4242  65.7767 0008558 315.1081 119.3825  1.00275740 27433
BEIDOU-3 M1 (C19)       
1 43001U 17069A   23329.83348585 -.00000030  00000+0  00000+0 0  9996
2 43001  55.9066  94.0726 0008000 291.0259  68.8511  1.86231267 41207
BEIDOU-3 M2 (C20)       
1 43002U 17069B   23330.84426675 -.00000036  00000+0  00000+0 0  9993
2 43002  55.9066  94.0752 0005580 320.2206  39.6993  1.86231010 41211
BEIDOU-3 M7 (C27)       
1 43107U 18003A   23330.59475597 -.00000092  00000+0  00000+0 0  9999
2 43107  55.0704 334.6248 0002618  52.5827 307.4598  1.86232373 39962
BEIDOU-3 M8 (C28)       
1 43108U 18003B   23331.07049285 -.00000094  00000+0  00000+0 0  9997
2 43108  55.0631 334.5950 0005032 261.8926  98.0671  1.86230859 39983
BEIDOU-3 M4 (C22)       
1 43207U 18018A   23329.36456570 -.00000025  00000+0  00000+0 0  9995
2 43207  55.8651  94.1844 0003373   7.4273 352.5415  1.86231205 39338
BEIDOU-3 M3 (C21)       
1 43208U 18018B   23328.89426550 -.00000019  00000+0  00000+0 0  9991
2 43208  55.8641  94.2046 0005521 304.1639  55.7496  1.86231258 39321
BEIDOU-3 M9 (C29)       
1 43245U 18029A   23329.65374609 -.00000088  00000+0  00000+0 0  9992
2 43245  54.9621 332.3835 0002199 265.6698  94.3234  1.86232454 38491
BEIDOU-3 M10 (C30)      
1 43246U 18029B   23330.65754658 -.00000092  00000+0  00000+0 0  9996
2 43246  54.9587 332.3776 0004005 339.4502  20.5484  1.86232750 38496
BEIDOU-2 IGSO-7 (C16)   
1 43539U 18057A   23330.84953759 -.00000039  00000+0  00000+0 0  9997
2 43539  55.1209 171.1256 0063779 229.1127  83.5240  1.00257841 19782
BEIDOU-3 M5 (C23)       
1 43581U 18062A   23329.26698517  .00000047  00000+0  00000+0 0  9990
2 43581  54.1597 214.1196 0002575 316.8467  43.2182  1.86231798 36220
BEIDOU-3 M6 (C24)       
1 43582U 18062B   23329.13382768  .00000046  00000+0  00000+0 0  9994
2 43582  54.1594 214.1137 0006670  28.2215 331.8990  1.86229688 36226
BEIDOU-3 M12 (C26)      
1 43602U 18067A   23330.68024166  .00000055  00000+0  00000+0 0  9999
2 43602  54.2475 212.7238 0008036  25.7014 334.4320  1.86231483 35738
BEIDOU-3 M11 (C25)      
1 43603U 18067B   23330.27712670  .00000055  00000+0  00000+0 0  9999
2 43603  54.2447 212.7031 0004819  19.8981 340.2126  1.86231438 35752
BEIDOU-3 M13 (C32)      
1 43622U 18072A   23330.77314103 -.00000036  00000+0  00000+0 0  9990
2 43622  55.8360  93.6751 0004939 281.6462  78.2596  1.86231158 35270
BEIDOU-3 M14 (C33)      
1 43623U 18072B   23330.63859493 -.00000036  00000+0  00000+0 0  9992
2 43623  55.8377  93.6724 0002302 319.7910  40.1532  1.86231157 35268
BEIDOU-3 M16 (C35)      
1 43647U 18078A   23330.80237063 -.00000093  00000+0  00000+0 0  9999
2 43647  54.8576 332.4598 0006736 358.5543   1.4581  1.86232227 34784
BEIDOU-3 M15 (C34)      
1 43648U 18078B   23330.39450171 -.00000091  00000+0  00000+0 0  9999
2 43648  54.8536 332.4774 0003664 357.0323   2.9813  1.86232107 34785
BEIDOU-3 G1 (C59)       
1 43683U 18085A   23330.98215359 -.00000267  00000+0  00000+0 0  9993
2 43683   1.7046 119.0751 0001504  18.8741  61.3759  1.00270901 18692
BEIDOU-3 M17 (C36)      
1 43706U 18093A   23330.00532795  .00000052  00000+0  00000+0 0  9998
2 43706  54.2422 214.0176 0007512 291.5998  68.4093  1.86231921 34123
BEIDOU-3 M18 (C37)      
1 43707U 18093B   23330.40920426  .00000053  00000+0  00000+0 0  9996
2 43707  54.2429 213.9957 0006871 327.3905  32.6581  1.86229773 34148
BEIDOU-3 IGSO-1 (C38)   
1 44204U 19023A   23330.68964422 -.00000245  00000+0  00000+0 0  9991
2 44204  57.3420  47.3656 0024234 200.9796 183.1505  1.00257383 16982
BEIDOU-2 G8 (C01)       
1 44231U 19027A   23331.12620574 -.00000238  00000+0  00000+0 0  9994
2 44231   1.4493  71.6833 0004887 166.2133  17.8754  1.00274049 16718
BEIDOU-3 IGSO-2 (C39)   
1 44337U 19035A   23330.84817301 -.00000043  00000+0  00000+0 0  9998
2 44337  55.1574 167.0556 0033152 194.2762 125.6043  1.00248413 16309
BEIDOU-3 M24 (C46)      
1 44542U 19061A   23330.48023712  .00000053  00000+0  00000+0 0  9990
2 44542  54.4695 214.2479 0008787   3.5762 356.5211  1.86231463 28407
BEIDOU-3 M23 (C45)      
1 44543U 19061B   23330.88573240  .00000053  00000+0  00000+0 0  9991
2 44543  54.4679 214.2032 0005556 358.3645 185.5868  1.86231778 28404
BEIDOU-3 IGSO-3 (C40)   
1 44709U 19073A   23330.29917836 -.00000220  00000+0  00000+0 0  9993
2 44709  56.3993 290.8790 0033982 190.4982 169.3504  1.00256723 15093
BEIDOU-3 M22 (C44)      
1 44793U 19078A   23326.56691553 -.00000067  00000+0  00000+0 0  9990
2 44793  54.7085 332.5633 0005508   3.6085 356.4238  1.86231971 27180
BEIDOU-3 M21 (C43)      
1 44794U 19078B   23328.30812129 -.00000080  00000+0  00000+0 0  9994
2 44794  54.6812 332.4836 0003795 348.3025  11.7121  1.86232476 27229
BEIDOU-3 M19 (C41)      
1 44864U 19090A   23330.72282360 -.00000036  00000+0  00000+0 0  9994
2 44864  55.7704  93.8587 0016279 272.4701 100.0495  1.86231574 26851
BEIDOU-3 M20 (C42)      
1 44865U 19090B   23330.55050139 -.00000035  00000+0  00000+0 0  9992
2 44865  55.7718  93.8975 0013779 286.1737  60.5856  1.86231522 26822
BEIDOU-3 G2 (C60)       
1 45344U 20017A   23330.89493959 -.00000133  00000+0  00000+0 0  9993
2 45344   2.1075  20.5483 0003545 223.1533 224.0720  1.00271722 13907
BEIDOU-3 G3 (C61)       
1 45807U 20040A   23330.90049675 -.00000345  00000+0  00000+0 0  9992
2 45807   0.5795   3.0360 0009822 306.5815 190.7214  1.00270011 12710
BEIDOU-3 G4             
1 56564U 23066A   23330.84277547 -.00000102  00000+0  00000+0 0  9990
2 56564   2.6340 288.5022 0004674 237.4632   2.8710  1.00273331  2031
